{
    "links": {
        "self": "http://www.neowsapp.com/rest/v1/neo/3297363?api_key=iIulBulltgU6a56xZRHN4H3l9WmuAYTsLGpBGhQ2"
    },
    "id": "3297363",
    "neo_reference_id": "3297363",
    "name": "(2005 UZ5)",
    "designation": "2005 UZ5",
    "nasa_jpl_url": "http://ssd.jpl.nasa.gov/sbdb.cgi?sstr=3297363",
    "absolute_magnitude_h": 23.6,
    "estimated_diameter": {
        "kilometers": {
            "estimated_diameter_min": 0.0506471459,
            "estimated_diameter_max": 0.1132504611
        },
        "meters": {
            "estimated_diameter_min": 50.6471458835,
            "estimated_diameter_max": 113.2504610618
        },
        "miles": {
            "estimated_diameter_min": 0.0314706677,
            "estimated_diameter_max": 0.0703705522
        },
        "feet": {
            "estimated_diameter_min": 166.1651821003,
            "estimated_diameter_max": 371.5566426699
        }
    },
    "is_potentially_hazardous_asteroid": false,
    "close_approach_data": [
        {
            "close_approach_date": "2005-11-02",
            "close_approach_date_full": "2005-Nov-02 04:40",
            "epoch_date_close_approach": 1130906400000,
            "relative_velocity": {
                "kilometers_per_second": "10.746256288",
                "kilometers_per_hour": "38686.5226368076",
                "miles_per_hour": "24038.3006906319"
            },
            "miss_distance": {
                "astronomical": "0.0984913377",
                "lunar": "38.3131303653",
                "kilometers": "14734094.333370699",
                "miles": "9155341.6799216862"
            },
            "orbiting_body": "Earth"
        }
    ],
    "orbital_data": {
        "orbit_id": "12",
        "orbit_determination_date": "2017-04-06 09:10:04",
        "first_observation_date": "2005-10-28",
        "last_observation_date": "2005-11-03",
        "data_arc_in_days": 6,
        "observations_used": 49,
        "orbit_uncertainty": "8",
        "minimum_orbit_intersection": ".0984779",
        "jupiter_tisserand_invariant": "4.639",
        "epoch_osculation": "2453673.5",
        "eccentricity": ".2432073591880609",
        "semi_major_axis": "1.411222973877564",
        "inclination": "19.5126475069355",
        "ascending_node_longitude": "36.44107115658699",
        "orbital_period": "612.3389479739228",
        "perihelion_distance": "1.06800316117528",
        "perihelion_argument": "28.81170499609745",
        "aphelion_distance": "1.754442786579849",
        "perihelion_time": "2453702.380128179004",
        "mean_anomaly": "343.0210928459769",
        "mean_motion": ".5879096882390878",
        "equinox": "J2000",
        "orbit_class": {
            "orbit_class_type": "AMO",
            "orbit_class_description": "Near-Earth asteroid orbits similar to that of 1221 Amor",
            "orbit_class_range": "1.017 AU < q (perihelion) < 1.3 AU"
        }
    },
    "is_sentry_object": false
}